ORBCOMM FM103           
1 40091U 14040F   25117.82334327  .00001690  00000+0  40009-3 0  9992
2 40091  47.0054 255.6400 0001126  35.5835 324.5125 14.58088905556755
ORBCOMM FM114           
1 41179U 15081A   25117.64076413  .00001118  00000+0  27678-3 0  9997
2 41179  47.0007 165.5763 0001215 142.0082 218.0889 14.58139835497093
ORBCOMM FM119           
1 41180U 15081B   25117.90056668  .00001684  00000+0  39896-3 0  9991
2 41180  47.0005  73.6440 0001144 226.3559 133.7232 14.58060518498389
ORBCOMM FM105           
1 41181U 15081C   25117.82247440  .00000789  00000+0  26788-3 0  9994
2 41181  47.0014  74.0735 0000880  80.9094 279.1886 14.45176489493461
ORBCOMM FM118           
1 41183U 15081E   25117.60224037  .00001546  00000+0  36953-3 0  9996
2 41183  47.0023 165.5960 0003461 273.3849  86.6641 14.58027385497067
ORBCOMM FM112           
1 41184U 15081F   25117.87728428  .00001681  00000+0  39825-3 0  9990
2 41184  46.9993  72.9157 0000324 161.6460 198.4437 14.58076973498326
