<?xml version="1.0" encoding="UTF-8"?>
<ndm xmlns:xsi="http://www.w3.org/2001/XMLSchema-instance" xsi:noNamespaceSchemaLocation="https://sanaregistry.org/r/ndmxml_unqualified/ndmxml-2.0.0-master-2.0.xsd">
<omm id="CCSDS_OMM_VERS" version="2.0">
<header><CREATION_DATE/><ORIGINATOR/></header><body><segment><metadata><OBJECT_NAME>ORBCOMM FM103</OBJECT_NAME><OBJECT_ID>2014-040F</OBJECT_ID><CENTER_NAME>EARTH</CENTER_NAME><REF_FRAME>TEME</REF_FRAME><TIME_SYSTEM>UTC</TIME_SYSTEM><MEAN_ELEMENT_THEORY>SGP4</MEAN_ELEMENT_THEORY></metadata><data><meanElements><EPOCH>2025-04-27T19:45:36.858528</EPOCH><MEAN_MOTION>14.58088905</MEAN_MOTION><ECCENTRICITY>.0001126</ECCENTRICITY><INCLINATION>47.0054</INCLINATION><RA_OF_ASC_NODE>255.6400</RA_OF_ASC_NODE><ARG_OF_PERICENTER>35.5835</ARG_OF_PERICENTER><MEAN_ANOMALY>324.5125</MEAN_ANOMALY></meanElements><tleParameters><EPHEMERIS_TYPE>0</EPHEMERIS_TYPE><CLASSIFICATION_TYPE>U</CLASSIFICATION_TYPE><NORAD_CAT_ID>40091</NORAD_CAT_ID><ELEMENT_SET_NO>999</ELEMENT_SET_NO><REV_AT_EPOCH>55675</REV_AT_EPOCH><BSTAR>.40009E-3</BSTAR><MEAN_MOTION_DOT>.169E-4</MEAN_MOTION_DOT><MEAN_MOTION_DDOT>0</MEAN_MOTION_DDOT></tleParameters></data></segment></body></omm>
<omm id="CCSDS_OMM_VERS" version="2.0">
<header><CREATION_DATE/><ORIGINATOR/></header><body><segment><metadata><OBJECT_NAME>ORBCOMM FM114</OBJECT_NAME><OBJECT_ID>2015-081A</OBJECT_ID><CENTER_NAME>EARTH</CENTER_NAME><REF_FRAME>TEME</REF_FRAME><TIME_SYSTEM>UTC</TIME_SYSTEM><MEAN_ELEMENT_THEORY>SGP4</MEAN_ELEMENT_THEORY></metadata><data><meanElements><EPOCH>2025-04-27T15:22:42.020832</EPOCH><MEAN_MOTION>14.58139835</MEAN_MOTION><ECCENTRICITY>.0001215</ECCENTRICITY><INCLINATION>47.0007</INCLINATION><RA_OF_ASC_NODE>165.5763</RA_OF_ASC_NODE><ARG_OF_PERICENTER>142.0082</ARG_OF_PERICENTER><MEAN_ANOMALY>218.0889</MEAN_ANOMALY></meanElements><tleParameters><EPHEMERIS_TYPE>0</EPHEMERIS_TYPE><CLASSIFICATION_TYPE>U</CLASSIFICATION_TYPE><NORAD_CAT_ID>41179</NORAD_CAT_ID><ELEMENT_SET_NO>999</ELEMENT_SET_NO><REV_AT_EPOCH>49709</REV_AT_EPOCH><BSTAR>.27678E-3</BSTAR><MEAN_MOTION_DOT>.1118E-4</MEAN_MOTION_DOT><MEAN_MOTION_DDOT>0</MEAN_MOTION_DDOT></tleParameters></data></segment></body></omm>
<omm id="CCSDS_OMM_VERS" version="2.0">
<header><CREATION_DATE/><ORIGINATOR/></header><body><segment><metadata><OBJECT_NAME>ORBCOMM FM119</OBJECT_NAME><OBJECT_ID>2015-081B</OBJECT_ID><CENTER_NAME>EARTH</CENTER_NAME><REF_FRAME>TEME</REF_FRAME><TIME_SYSTEM>UTC</TIME_SYSTEM><MEAN_ELEMENT_THEORY>SGP4</MEAN_ELEMENT_THEORY></metadata><data><meanElements><EPOCH>2025-04-27T21:36:48.961152</EPOCH><MEAN_MOTION>14.58060518</MEAN_MOTION><ECCENTRICITY>.0001144</ECCENTRICITY><INCLINATION>47.0005</INCLINATION><RA_OF_ASC_NODE>73.6440</RA_OF_ASC_NODE><ARG_OF_PERICENTER>226.3559</ARG_OF_PERICENTER><MEAN_ANOMALY>133.7232</MEAN_ANOMALY></meanElements><tleParameters><EPHEMERIS_TYPE>0</EPHEMERIS_TYPE><CLASSIFICATION_TYPE>U</CLASSIFICATION_TYPE><NORAD_CAT_ID>41180</NORAD_CAT_ID><ELEMENT_SET_NO>999</ELEMENT_SET_NO><REV_AT_EPOCH>49838</REV_AT_EPOCH><BSTAR>.39896E-3</BSTAR><MEAN_MOTION_DOT>.1684E-4</MEAN_MOTION_DOT><MEAN_MOTION_DDOT>0</MEAN_MOTION_DDOT></tleParameters></data></segment></body></omm>
<omm id="CCSDS_OMM_VERS" version="2.0">
<header><CREATION_DATE/><ORIGINATOR/></header><body><segment><metadata><OBJECT_NAME>ORBCOMM FM105</OBJECT_NAME><OBJECT_ID>2015-081C</OBJECT_ID><CENTER_NAME>EARTH</CENTER_NAME><REF_FRAME>TEME</REF_FRAME><TIME_SYSTEM>UTC</TIME_SYSTEM><MEAN_ELEMENT_THEORY>SGP4</MEAN_ELEMENT_THEORY></metadata><data><meanElements><EPOCH>2025-04-27T19:44:21.788160</EPOCH><MEAN_MOTION>14.45176489</MEAN_MOTION><ECCENTRICITY>.000088</ECCENTRICITY><INCLINATION>47.0014</INCLINATION><RA_OF_ASC_NODE>74.0735</RA_OF_ASC_NODE><ARG_OF_PERICENTER>80.9094</ARG_OF_PERICENTER><MEAN_ANOMALY>279.1886</MEAN_ANOMALY></meanElements><tleParameters><EPHEMERIS_TYPE>0</EPHEMERIS_TYPE><CLASSIFICATION_TYPE>U</CLASSIFICATION_TYPE><NORAD_CAT_ID>41181</NORAD_CAT_ID><ELEMENT_SET_NO>999</ELEMENT_SET_NO><REV_AT_EPOCH>49346</REV_AT_EPOCH><BSTAR>.26788E-3</BSTAR><MEAN_MOTION_DOT>.789E-5</MEAN_MOTION_DOT><MEAN_MOTION_DDOT>0</MEAN_MOTION_DDOT></tleParameters></data></segment></body></omm>
<omm id="CCSDS_OMM_VERS" version="2.0">
<header><CREATION_DATE/><ORIGINATOR/></header><body><segment><metadata><OBJECT_NAME>ORBCOMM FM118</OBJECT_NAME><OBJECT_ID>2015-081E</OBJECT_ID><CENTER_NAME>EARTH</CENTER_NAME><REF_FRAME>TEME</REF_FRAME><TIME_SYSTEM>UTC</TIME_SYSTEM><MEAN_ELEMENT_THEORY>SGP4</MEAN_ELEMENT_THEORY></metadata><data><meanElements><EPOCH>2025-04-27T14:27:13.567968</EPOCH><MEAN_MOTION>14.58027385</MEAN_MOTION><ECCENTRICITY>.0003461</ECCENTRICITY><INCLINATION>47.0023</INCLINATION><RA_OF_ASC_NODE>165.5960</RA_OF_ASC_NODE><ARG_OF_PERICENTER>273.3849</ARG_OF_PERICENTER><MEAN_ANOMALY>86.6641</MEAN_ANOMALY></meanElements><tleParameters><EPHEMERIS_TYPE>0</EPHEMERIS_TYPE><CLASSIFICATION_TYPE>U</CLASSIFICATION_TYPE><NORAD_CAT_ID>41183</NORAD_CAT_ID><ELEMENT_SET_NO>999</ELEMENT_SET_NO><REV_AT_EPOCH>49706</REV_AT_EPOCH><BSTAR>.36953E-3</BSTAR><MEAN_MOTION_DOT>.1546E-4</MEAN_MOTION_DOT><MEAN_MOTION_DDOT>0</MEAN_MOTION_DDOT></tleParameters></data></segment></body></omm>
<omm id="CCSDS_OMM_VERS" version="2.0">
<header><CREATION_DATE/><ORIGINATOR/></header><body><segment><metadata><OBJECT_NAME>ORBCOMM FM112</OBJECT_NAME><OBJECT_ID>2015-081F</OBJECT_ID><CENTER_NAME>EARTH</CENTER_NAME><REF_FRAME>TEME</REF_FRAME><TIME_SYSTEM>UTC</TIME_SYSTEM><MEAN_ELEMENT_THEORY>SGP4</MEAN_ELEMENT_THEORY></metadata><data><meanElements><EPOCH>2025-04-27T21:03:17.361792</EPOCH><MEAN_MOTION>14.58076973</MEAN_MOTION><ECCENTRICITY>.0000324</ECCENTRICITY><INCLINATION>46.9993</INCLINATION><RA_OF_ASC_NODE>72.9157</RA_OF_ASC_NODE><ARG_OF_PERICENTER>161.6460</ARG_OF_PERICENTER><MEAN_ANOMALY>198.4437</MEAN_ANOMALY></meanElements><tleParameters><EPHEMERIS_TYPE>0</EPHEMERIS_TYPE><CLASSIFICATION_TYPE>U</CLASSIFICATION_TYPE><NORAD_CAT_ID>41184</NORAD_CAT_ID><ELEMENT_SET_NO>999</ELEMENT_SET_NO><REV_AT_EPOCH>49832</REV_AT_EPOCH><BSTAR>.39825E-3</BSTAR><MEAN_MOTION_DOT>.1681E-4</MEAN_MOTION_DOT><MEAN_MOTION_DDOT>0</MEAN_MOTION_DDOT></tleParameters></data></segment></body></omm>

</ndm>
